{
  "type": "FeatureCollection",
  "features": [
    {
      "type": "Feature",
      "properties": {
        "norad_id": 44709,
        "name": "BEIDOU-3 IGSO-3 (C40)",
        "group": "beidou",
        "lat": -24.411088749448602,
        "lon": 121.24282861182648,
        "alt_km": 35619.34345482088,
        "timestamp": "2025-12-17T19:34:08.304072+00:00",
        "meta_object_name": "BEIDOU-3 IGSO-3 (C40)",
        "meta_object_id": "2019-073A",
        "meta_epoch": "2025-11-20T07:11:22.740000",
        "meta_mean_motion": 1.00250097,
        "meta_eccentricity": 0.0044538,
        "meta_inclination": 55.163,
        "meta_ra_of_asc_node": 283.159,
        "meta_arg_of_pericenter": 191.5856,
        "meta_mean_anomaly": 168.2409,
        "meta_ephemeris_type": 0,
        "meta_classification_type": "U",
        "meta_norad_cat_id": 44709,
        "meta_element_set_no": 999,
        "meta_rev_at_epoch": 2236,
        "meta_bstar": 0,
        "meta_mean_motion_dot": -2.06e-06,
        "meta_mean_motion_ddot": 0,
        "tle_line1": "1 44709U 19073A   25324.29956875 -.00000206  00000+0  00000+0 0  9998",
        "tle_line2": "2 44709  55.1630 283.1590 0044538 191.5856 168.2409  1.00250097 22360"
      },
      "geometry": {
        "type": "Point",
        "coordinates": [
          121.24282861182648,
          -24.411088749448602
        ]
      }
    },
    {
      "type": "Feature",
      "properties": {
        "norad_id": 44793,
        "name": "BEIDOU-3 M22 (C44)",
        "group": "beidou",
        "lat": 23.797841551161145,
        "lon": 107.57299004745822,
        "alt_km": 21534.729381786765,
        "timestamp": "2025-12-17T19:34:08.304087+00:00",
        "meta_object_name": "BEIDOU-3 M22 (C44)",
        "meta_object_id": "2019-078A",
        "meta_epoch": "2025-12-17T01:18:45.560736",
        "meta_mean_motion": 1.86231936,
        "meta_eccentricity": 0.00058159,
        "meta_inclination": 54.1041,
        "meta_ra_of_asc_node": 306.2341,
        "meta_arg_of_pericenter": 23.4799,
        "meta_mean_anomaly": 336.5334,
        "meta_ephemeris_type": 0,
        "meta_classification_type": "U",
        "meta_norad_cat_id": 44793,
        "meta_element_set_no": 999,
        "meta_rev_at_epoch": 4125,
        "meta_bstar": 0,
        "meta_mean_motion_dot": -9.2e-07,
        "meta_mean_motion_ddot": 0,
        "tle_line1": "1 44793U 19078A   25351.05469399 -.00000092  00000+0  00000+0 0  9993",
        "tle_line2": "2 44793  54.1041 306.2341 0005815  23.4799 336.5334  1.86231936 41254"
      },
      "geometry": {
        "type": "Point",
        "coordinates": [
          107.57299004745822,
          23.797841551161145
        ]
      }
    },
    {
      "type": "Feature",
      "properties": {
        "norad_id": 44794,
        "name": "BEIDOU-3 M21 (C43)",
        "group": "beidou",
        "lat": 43.18536262263227,
        "lon": -11.018661239837828,
        "alt_km": 21515.155651643225,
        "timestamp": "2025-12-17T19:34:08.304098+00:00",
        "meta_object_name": "BEIDOU-3 M21 (C43)",
        "meta_object_id": "2019-078B",
        "meta_epoch": "2025-12-16T15:43:55.727904",
        "meta_mean_motion": 1.86227668,
        "meta_eccentricity": 0.00041169,
        "meta_inclination": 54.078,
        "meta_ra_of_asc_node": 306.2132,
        "meta_arg_of_pericenter": 11.942,
        "meta_mean_anomaly": 348.0544,
        "meta_ephemeris_type": 0,
        "meta_classification_type": "U",
        "meta_norad_cat_id": 44794,
        "meta_element_set_no": 999,
        "meta_rev_at_epoch": 4125,
        "meta_bstar": 0,
        "meta_mean_motion_dot": -9.5e-07,
        "meta_mean_motion_ddot": 0,
        "tle_line1": "1 44794U 19078B   25350.65550611 -.00000095  00000+0  00000+0 0  9990",
        "tle_line2": "2 44794  54.0780 306.2132 0004116  11.9420 348.0544  1.86227668 41256"
      },
      "geometry": {
        "type": "Point",
        "coordinates": [
          -11.018661239837828,
          43.18536262263227
        ]
      }
    },
    {
      "type": "Feature",
      "properties": {
        "norad_id": 44864,
        "name": "BEIDOU-3 M19 (C41)",
        "group": "beidou",
        "lat": -52.94816032364231,
        "lon": -49.63770100500445,
        "alt_km": 21491.447882128472,
        "timestamp": "2025-12-17T19:34:08.304109+00:00",
        "meta_object_name": "BEIDOU-3 M19 (C41)",
        "meta_object_id": "2019-090A",
        "meta_epoch": "2025-12-14T04:04:53.318784",
        "meta_mean_motion": 1.86231555,
        "meta_eccentricity": 0.00179181,
        "meta_inclination": 56.3949,
        "meta_ra_of_asc_node": 68.9134,
        "meta_arg_of_pericenter": 285.3736,
        "meta_mean_anomaly": 44.0547,
        "meta_ephemeris_type": 0,
        "meta_classification_type": "U",
        "meta_norad_cat_id": 44864,
        "meta_element_set_no": 999,
        "meta_rev_at_epoch": 4078,
        "meta_bstar": 0,
        "meta_mean_motion_dot": -8.2e-07,
        "meta_mean_motion_ddot": 0,
        "tle_line1": "1 44864U 19090A   25348.17006156 -.00000082  00000+0  00000+0 0  9992",
        "tle_line2": "2 44864  56.3949  68.9134 0017918 285.3736  44.0547  1.86231555 40784"
      },
      "geometry": {
        "type": "Point",
        "coordinates": [
          -49.63770100500445,
          -52.94816032364231
        ]
      }
    },
    {
      "type": "Feature",
      "properties": {
        "norad_id": 44865,
        "name": "BEIDOU-3 M20 (C42)",
        "group": "beidou",
        "lat": -13.986076156521689,
        "lon": 59.32247420530496,
        "alt_km": 21500.491822255415,
        "timestamp": "2025-12-17T19:34:08.304120+00:00",
        "meta_object_name": "BEIDOU-3 M20 (C42)",
        "meta_object_id": "2019-090B",
        "meta_epoch": "2025-12-14T14:16:43.218624",
        "meta_mean_motion": 1.86231589,
        "meta_eccentricity": 0.00151163,
        "meta_inclination": 56.3967,
        "meta_ra_of_asc_node": 68.9336,
        "meta_arg_of_pericenter": 297.6834,
        "meta_mean_anomaly": 46.2212,
        "meta_ephemeris_type": 0,
        "meta_classification_type": "U",
        "meta_norad_cat_id": 44865,
        "meta_element_set_no": 999,
        "meta_rev_at_epoch": 4077,
        "meta_bstar": 0,
        "meta_mean_motion_dot": -8.3e-07,
        "meta_mean_motion_ddot": 0,
        "tle_line1": "1 44865U 19090B   25348.59494466 -.00000083  00000+0  00000+0 0  9995",
        "tle_line2": "2 44865  56.3967  68.9336 0015116 297.6834  46.2212  1.86231589 40771"
      },
      "geometry": {
        "type": "Point",
        "coordinates": [
          59.32247420530496,
          -13.986076156521689
        ]
      }
    },
    {
      "type": "Feature",
      "properties": {
        "norad_id": 45344,
        "name": "BEIDOU-3 G2 (C60)",
        "group": "beidou",
        "lat": 2.104500801892195,
        "lon": 100.19508836545701,
        "alt_km": 35798.86017942564,
        "timestamp": "2025-12-17T19:34:08.304132+00:00",
        "meta_object_name": "BEIDOU-3 G2 (C60)",
        "meta_object_id": "2020-017A",
        "meta_epoch": "2025-12-17T15:25:10.515648",
        "meta_mean_motion": 1.002635,
        "meta_eccentricity": 0.0002583,
        "meta_inclination": 2.506,
        "meta_ra_of_asc_node": 44.0524,
        "meta_arg_of_pericenter": 247.3887,
        "meta_mean_anomaly": 106.3774,
        "meta_ephemeris_type": 0,
        "meta_classification_type": "U",
        "meta_norad_cat_id": 45344,
        "meta_element_set_no": 999,
        "meta_rev_at_epoch": 2143,
        "meta_bstar": 0,
        "meta_mean_motion_dot": -1.16e-06,
        "meta_mean_motion_ddot": 0,
        "tle_line1": "1 45344U 20017A   25351.64248282 -.00000116  00000+0  00000+0 0  9999",
        "tle_line2": "2 45344   2.5060  44.0524 0002583 247.3887 106.3774  1.00263500 21436"
      },
      "geometry": {
        "type": "Point",
        "coordinates": [
          100.19508836545701,
          2.104500801892195
        ]
      }
    },
    {
      "type": "Feature",
      "properties": {
        "norad_id": 45807,
        "name": "BEIDOU-3 G3 (C61)",
        "group": "beidou",
        "lat": 1.8193154806500085,
        "lon": 130.8458060374208,
        "alt_km": 35797.23232148094,
        "timestamp": "2025-12-17T19:34:08.304143+00:00",
        "meta_object_name": "BEIDOU-3 G3 (C61)",
        "meta_object_id": "2020-040A",
        "meta_epoch": "2025-12-17T07:00:14.827392",
        "meta_mean_motion": 1.00272037,
        "meta_eccentricity": 0.00063789,
        "meta_inclination": 2.002,
        "meta_ra_of_asc_node": 66.6244,
        "meta_arg_of_pericenter": 308.8404,
        "meta_mean_anomaly": 286.3488,
        "meta_ephemeris_type": 0,
        "meta_classification_type": "U",
        "meta_norad_cat_id": 45807,
        "meta_element_set_no": 999,
        "meta_rev_at_epoch": 2024,
        "meta_bstar": 0,
        "meta_mean_motion_dot": -3.31e-06,
        "meta_mean_motion_ddot": 0,
        "tle_line1": "1 45807U 20040A   25351.29183828 -.00000331  00000+0  00000+0 0  9993",
        "tle_line2": "2 45807   2.0020  66.6244 0006378 308.8404 286.3488  1.00272037 20248"
      },
      "geometry": {
        "type": "Point",
        "coordinates": [
          130.8458060374208,
          1.8193154806500085
        ]
      }
    }
  ]
}